XRISM                   
1 57800U 23137A   24044.15551672  .00007330  00000+0  57521-3 0  9997
2 57800  31.0038  87.4718 0009770  51.1405 309.0101 14.99574403 23893
